{"fetched_at":"2026-03-30T06:02:59Z","count":15439,"tles":[{"name":"STARLINK-35270","line1":"1 65882U 25224A   26087.82408589  .00025746  00000+0  87760-3 0  9995","line2":"2 65882  53.1583 282.4932 0001004  99.8195 260.2919 15.30228505 27753","category":"Starlink"}]}